SENTINEL-6              
1 46984U 20086A   23291.49357170 -.00000037  00000+0  10440-3 0  9992
2 46984  66.0441 355.3482 0007893 268.0444  91.9667 12.80930355135877
